NORAD_CAT_ID,OBJECT_NAME,OBJECT_TYPE,EPOCH,MEAN_MOTION,ECCENTRICITY,INCLINATION,RA_OF_ASC_NODE,ARG_OF_PERICENTER,MEAN_ANOMALY,BSTAR,MEAN_MOTION_DOT,MEAN_MOTION_DDOT,TLE_LINE0,TLE_LINE1,TLE_LINE2,SEMIMAJOR_AXIS,PERIOD,APOGEE,PERIGEE,DECAYED
56477.0,STARLINK-5534,PAYLOAD,2023-11-18 14:21:48,14.9907661,0.0003163,70.0003,87.6078,266.5811,93.4987,0.001034,0.00012507,0.0,0 STARLINK-5534,1 56477U 23064AF  23322.59847750  .00012507  00000-0  10340-2 0  9996,2 56477  70.0003  87.6078 0003163 266.5811  93.4987 14.99076610 29609,6947.885,96.059,571.948,567.552,0.0
56477.0,STARLINK-5534,PAYLOAD,2023-11-19 01:34:24,14.99134299,0.0002998,70.0015,86.428,274.5923,85.4894,6.5519e-05,7.05e-06,0.0,0 STARLINK-5534,1 56477U 23064AF  23323.06555556  .00000705  00000-0  65519-4 0  9996,2 56477  70.0015  86.4280 0002998 274.5923  85.4894 14.99134299 30037,6947.707,96.055,571.655,567.489,0.0
56477.0,STARLINK-5534,PAYLOAD,2023-11-19 14:00:01,14.99147007,0.0003033,70.0015,85.1205,273.0082,0.7947,-0.002124,-0.00025884,0.0,0 STARLINK-5534,1 56477U 23064AF  23323.58335648 -.00025884  00000-0 -21240-2 0  9999,2 56477  70.0015  85.1205 0003033 273.0082   0.7947 14.99147007  5785,6947.668,96.055,571.64,567.425,0.0
56477.0,STARLINK-5534,PAYLOAD,2023-11-19 22:00:00,14.99151923,0.0003042,70.0011,84.2789,274.6771,357.5119,-0.002973,-0.00036145,0.0,0 STARLINK-5534,1 56477U 23064AF  23323.91667824 -.00036145  00000-0 -29730-2 0  9994,2 56477  70.0011  84.2789 0003042 274.6771 357.5119 14.99151923  5797,6947.652,96.054,571.631,567.404,0.0
56477.0,STARLINK-5534,PAYLOAD,2023-11-20 01:35:38,14.99136439,0.000278,70.0003,83.9021,272.7217,87.3624,-4.2745e-05,-6.14e-06,0.0,0 STARLINK-5534,1 56477U 23064AF  23324.06641907 -.00000614  00000-0 -42745-4 0  9990,2 56477  70.0003  83.9021 0002780 272.7217  87.3624 14.99136439 30180,6947.7,96.055,571.497,567.634,0.0
56477.0,STARLINK-5534,PAYLOAD,2023-11-20 14:24:17,14.99143089,0.0002652,70.0,82.5527,265.143,94.9426,-4.2907e-06,-1.46e-06,0.0,0 STARLINK-5534,1 56477U 23064AF  23324.60020471 -.00000146  00000-0 -42907-5 0  9998,2 56477  70.0000  82.5527 0002652 265.1430  94.9426 14.99143089 29905,6947.68,96.055,571.387,567.702,0.0
56477.0,STARLINK-5534,PAYLOAD,2023-11-20 17:36:27,14.99144451,0.0002781,70.0001,82.2161,269.92,90.1641,5.621e-06,-2.5e-07,0.0,0 STARLINK-5534,1 56477U 23064AF  23324.73365142 -.00000025  00000-0  56210-5 0  9996,2 56477  70.0001  82.2161 0002781 269.9200  90.1641 14.99144451 30281,6947.675,96.055,571.473,567.608,0.0
56477.0,STARLINK-5534,PAYLOAD,2023-11-21 11:13:22,14.99136903,0.000295,70.0002,80.3637,272.0404,88.0418,4.0208e-05,3.96e-06,0.0,0 STARLINK-5534,1 56477U 23064AF  23325.46761827  .00000396  00000-0  40208-4 0  9996,2 56477  70.0002  80.3637 0002950 272.0404  88.0418 14.99136903 30391,6947.699,96.055,571.613,567.514,0.0
56477.0,STARLINK-5534,PAYLOAD,2023-11-21 12:49:27,14.9913753,0.0002937,70.0003,80.1951,271.5964,88.4859,4.8646e-05,4.99e-06,0.0,0 STARLINK-5534,1 56477U 23064AF  23325.53434160  .00000499  00000-0  48646-4 0  9999,2 56477  70.0003  80.1951 0002937 271.5964  88.4859 14.99137530 30041,6947.697,96.055,571.602,567.521,0.0
56477.0,STARLINK-5534,PAYLOAD,2023-11-21 17:37:41,14.99141435,0.0002752,70.0004,79.6897,267.4319,92.6525,0.00010349,1.168e-05,0.0,0 STARLINK-5534,1 56477U 23064AF  23325.73450915  .00001168  00000-0  10349-3 0  9999,2 56477  70.0004  79.6897 0002752 267.4319  92.6525 14.99141435 30076,6947.685,96.055,571.462,567.638,0.0
56477.0,STARLINK-5534,PAYLOAD,2023-11-22 14:26:45,14.99145589,0.0002559,70.0013,77.5,270.6296,89.457,7.3103e-05,7.97e-06,0.0,0 STARLINK-5534,1 56477U 23064AF  23326.60191782  .00000797  00000-0  73103-4 0  9995,2 56477  70.0013  77.5000 0002559 270.6296  89.4570 14.99145589 30207,6947.672,96.055,571.315,567.759,0.0
56477.0,STARLINK-5534,PAYLOAD,2023-11-22 17:38:55,14.99148406,0.0002516,70.0015,77.1648,261.5972,98.4903,0.00013268,1.524e-05,0.0,0 STARLINK-5534,1 56477U 23064AF  23326.73536123  .00001524  00000-0  13268-3 0  9995,2 56477  70.0015  77.1648 0002516 261.5972  98.4903 14.99148406 30588,6947.663,96.055,571.276,567.78,0.0
56477.0,STARLINK-5534,PAYLOAD,2023-11-23 11:15:50,14.99157294,0.0001933,70.004,75.3159,256.1475,103.947,-0.00041342,-5.129e-05,0.0,0 STARLINK-5534,1 56477U 23064AF  23327.46933242 -.00005129  00000-0 -41342-3 0  9990,2 56477  70.0040  75.3159 0001933 256.1475 103.9470 14.99157294 30691,6947.636,96.054,570.844,568.158,0.0
56477.0,STARLINK-5534,PAYLOAD,2023-11-23 14:28:05,14.99080515,0.00026,70.0015,74.9756,260.9898,99.0967,-0.00066822,-8.214e-05,0.0,0 STARLINK-5534,1 56477U 23064AF  23327.60283707 -.00008214  00000-0 -66822-3 0  9998,2 56477  70.0015  74.9756 0002600 260.9898  99.0967 14.99080515 30355,6947.873,96.059,571.544,567.932,0.0
56477.0,STARLINK-5534,PAYLOAD,2023-11-23 17:40:18,14.99046466,0.0002566,70.0009,74.6385,268.1229,91.9637,-0.0010342,-0.00012642,0.0,0 STARLINK-5534,1 56477U 23064AF  23327.73632159 -.00012642  00000-0 -10342-2 0  9996,2 56477  70.0009  74.6385 0002566 268.1229  91.9637 14.99046466 30736,6947.978,96.061,571.626,568.06,0.0
56477.0,STARLINK-5534,PAYLOAD,2023-11-24 08:05:26,14.98828335,0.0003098,70.0024,73.126,229.6821,130.4067,-0.0030589,-0.00036872,0.0,0 STARLINK-5534,1 56477U 23064AF  23328.33711600 -.00036872  00000-0 -30589-2 0  9998,2 56477  70.0024  73.1260 0003098 229.6821 130.4067 14.98828335 30828,6948.652,96.075,572.67,568.365,0.0
56477.0,STARLINK-5534,PAYLOAD,2023-11-24 14:30:03,14.98680822,0.0002794,70.0015,72.4525,255.0044,105.0806,-0.0044177,-0.00052886,0.0,0 STARLINK-5534,1 56477U 23064AF  23328.60420264 -.00052886  00000-0 -44177-2 0  9992,2 56477  70.0015  72.4525 0002794 255.0044 105.0806 14.98680822 30507,6949.108,96.085,572.915,569.032,0.0
56477.0,STARLINK-5534,PAYLOAD,2023-11-24 16:06:10,14.98672574,0.0002732,70.0019,72.2841,245.6101,114.4773,-0.0044257,-0.00052969,0.0,0 STARLINK-5534,1 56477U 23064AF  23328.67094928 -.00052969  00000-0 -44257-2 0  9994,2 56477  70.0019  72.2841 0002732 245.6101 114.4773 14.98672574 30873,6949.134,96.085,572.897,569.1,0.0
56477.0,STARLINK-5534,PAYLOAD,2023-11-25 14:31:49,14.98583575,0.0002591,70.0034,69.9278,230.8564,129.2365,-0.0038511,-0.00046043,0.0,0 STARLINK-5534,1 56477U 23064AF  23329.60543954 -.00046043  00000-0 -38511-2 0  9998,2 56477  70.0034  69.9278 0002591 230.8564 129.2365 14.98583575 30658,6949.409,96.091,573.074,569.473,0.0
56477.0,STARLINK-5534,PAYLOAD,2023-11-25 22:32:26,14.98549792,0.000335,70.0004,69.079,282.8412,77.2372,-0.0030741,-0.0003679,0.0,0 STARLINK-5534,1 56477U 23064AF  23329.93919474 -.00036790  00000-0 -30741-2 0  9993,2 56477  70.0004  69.0790 0003350 282.8412  77.2372 14.98549792 30707,6949.513,96.093,573.706,569.05,0.0
56477.0,STARLINK-5534,PAYLOAD,2023-11-26 11:21:32,14.9833471,0.0002927,70.0018,67.7377,273.1394,86.943,6.1536e-06,-2e-07,0.0,0 STARLINK-5534,1 56477U 23064AF  23330.47329375 -.00000020  00000-0  61536-5 0  9994,2 56477  70.0018  67.7377 0002927 273.1394  86.9430 14.98334710 31142,6950.178,96.107,574.078,570.009,0.0
56477.0,STARLINK-5534,PAYLOAD,2023-11-26 14:33:48,14.98340287,0.000241,70.0033,67.4029,234.5143,125.5792,6.7013e-05,7.07e-06,0.0,0 STARLINK-5534,1 56477U 23064AF  23330.60680626  .00000707  00000-0  67013-4 0  9994,2 56477  70.0033  67.4029 0002410 234.5143 125.5792 14.98340287 30809,6950.161,96.106,573.701,570.351,0.0
56477.0,STARLINK-5534,PAYLOAD,2023-11-26 22:00:00,14.98292724,0.0003175,70.0025,66.6172,272.2401,318.8274,-0.0017177,-0.00020509,0.0,0 STARLINK-5534,1 56477U 23064AF  23330.91667824 -.00020509  00000-0 -17177-2 0  9991,2 56477  70.0025  66.6172 0003175 272.2401 318.8274 14.98292724  5643,6950.308,96.109,574.38,569.966,0.0
56477.0,STARLINK-5534,PAYLOAD,2023-11-27 00:00:00,14.98274765,0.0003167,70.0027,66.4071,270.5327,49.8974,0.0015762,0.00018738,0.0,0 STARLINK-5534,1 56477U 23064AF  23331.00001157  .00018738  00000-0  15762-2 0  9990,2 56477  70.0027  66.4071 0003167 270.5327  49.8974 14.98274765 31226,6950.364,96.111,574.43,570.028,0.0
56477.0,STARLINK-5534,PAYLOAD,2023-11-27 11:23:35,14.983226,0.0002832,70.0009,65.2111,273.0138,87.0697,-0.00015012,-1.883e-05,0.0,0 STARLINK-5534,1 56477U 23064AF  23331.47471870 -.00001883  00000-0 -15012-3 0  9998,2 56477  70.0009  65.2111 0002832 273.0138  87.0697 14.98322600 31299,6950.216,96.107,574.049,570.112,0.0
56477.0,STARLINK-5534,PAYLOAD,2023-11-27 14:35:51,14.98328655,0.0002503,70.0018,64.8755,262.5041,97.5834,-5.6511e-05,-7.67e-06,0.0,0 STARLINK-5534,1 56477U 23064AF  23331.60823239 -.00000767  00000-0 -56511-4 0  9993,2 56477  70.0018  64.8755 0002503 262.5041  97.5834 14.98328655 30956,6950.197,96.107,573.802,570.322,0.0
56477.0,STARLINK-5534,PAYLOAD,2023-11-27 16:11:59,14.9833151,0.0002504,70.0018,64.707,273.3221,86.7651,-1.9464e-05,-3.25e-06,0.0,0 STARLINK-5534,1 56477U 23064AF  23331.67499061 -.00000325  00000-0 -19464-4 0  9998,2 56477  70.0018  64.7070 0002504 273.3221  86.7651 14.98331510 31329,6950.188,96.107,573.794,570.313,0.0
56477.0,STARLINK-5534,PAYLOAD,2023-11-28 09:49:26,14.98339683,0.0002954,70.0023,62.8559,276.4103,83.6719,0.00015411,1.747e-05,0.0,0 STARLINK-5534,1 56477U 23064AF  23332.40933684  .00001747  00000-0  15411-3 0  9998,2 56477  70.0023  62.8559 0002954 276.4103  83.6719 14.98339683 31430,6950.163,96.106,574.081,569.975,0.0
56477.0,STARLINK-5534,PAYLOAD,2023-11-28 14:37:50,14.98345052,0.0002232,70.0025,62.3503,247.2892,112.8031,0.00019461,2.231e-05,0.0,0 STARLINK-5534,1 56477U 23064AF  23332.60961078  .00002231  00000-0  19461-3 0  9996,2 56477  70.0025  62.3503 0002232 247.2892 112.8031 14.98345052 31109,6950.146,96.106,573.563,570.46,0.0
56477.0,STARLINK-5534,PAYLOAD,2023-11-28 16:13:57,14.98354008,0.0002377,70.0018,62.1822,271.5324,88.5563,0.00022491,2.593e-05,0.0,0 STARLINK-5534,1 56477U 23064AF  23332.67636473  .00002593  00000-0  22491-3 0  9999,2 56477  70.0018  62.1822 0002377 271.5324  88.5563 14.98354008 31473,6950.119,96.105,573.636,570.332,0.0
